{"fetched_at":"2026-03-30T06:02:59Z","count":15439,"tles":[{"name":"STARLINK-30582","line1":"1 58059U 23158J   26087.58231554  .00001854  00000+0  76879-4 0  9990","line2":"2 58059  43.0040 279.9905 0001458 262.3302  97.7384 15.27588051136467","category":"Starlink"}]}