{
  "norad_id": 58059,
  "name": "STARLINK-30582",
  "history": [
    {
      "epoch": "2026-03-28T13:58:32.062656Z",
      "apogee_km": 484.0253459731339,
      "perigee_km": 482.0246311372712,
      "latitude_deg": -7.427978722817503e-06,
      "longitude_deg": -115.6437945096169,
      "height_km": 482.93566594538504,
      "semi_major_axis_km": 6861.161988555202,
      "eccentricity": 0.0001458,
      "inclination_deg": 43.004,
      "raan_deg": 279.9905,
      "arg_perigee_deg": 262.3302,
      "mean_anomaly_deg": 97.7384,
      "mean_motion_rev_day": 15.27588051
    }
  ]
}